STARLINK-1710           
1 46330U 20062F   22109.78437321  .00006682  00000+0  46693-3 0  9997
2 46330  53.0537 250.8111 0001588  62.8660 297.2491 15.06408595 90588
STARLINK-1719           
1 46331U 20062G   22110.15113670  .00006426  00000+0  44973-3 0  9994
2 46331  53.0533 269.1737 0001456  67.7254 292.3889 15.06415900 90539
STARLINK-1721           
1 46332U 20062H   22110.42756965  .00002960  00000+0  21749-3 0  9990
2 46332  53.0562 267.9422 0001629  57.9199 302.1948 15.06410325 90576
STARLINK-1723           
1 46333U 20062J   22110.44231343  .00002568  00000+0  19115-3 0  9999
2 46333  53.0547 267.8756 0001840  65.9030 294.2152 15.06411542 90577
STARLINK-1725           
1 46334U 20062K   22109.75394694  .00001839  00000+0  14234-3 0  9998
2 46334  53.0550 250.9481 0001690  55.1300 304.9848 15.06398871 90754
STARLINK-1727           
1 46335U 20062L   22109.74198989 -.00000060  00000+0  14870-4 0  9990
2 46335  53.0556 271.0179 0001553  56.9643 303.1495 15.06401949 90475
STARLINK-1738           
1 46336U 20062M   22110.39624247  .00002585  00000+0  19233-3 0  9995
2 46336  53.0531 248.0805 0001736  55.9260 304.1894 15.06412178 90858
STARLINK-1750           
1 46337U 20062N   22110.41098434 -.00000447  00000+0 -11102-4 0  9997
2 46337  53.0569 248.0064 0001660  52.2674 307.8465 15.06405541 90852
STARLINK-1752           
1 46338U 20062P   22110.46074613  .00000603  00000+0  59368-4 0  9994
2 46338  53.0554 267.7826 0001512  58.0827 302.0309 15.06410989 90576
STARLINK-1759           
1 46340U 20062R   22109.77053778  .00002357  00000+0  17709-3 0  9998
2 46340  53.0561 270.8790 0001574  61.2840 298.8307 15.06401990 90472
STARLINK-1760           
1 46341U 20062S   22110.37412751  .00000282  00000+0  37800-4 0  9997
2 46341  53.0546 248.1711 0001583  58.6449 301.4695 15.06399313 90850
STARLINK-1762           
1 46342U 20062T   22110.42019735  .00002063  00000+0  15727-3 0  9991
2 46342  53.0532 267.9517 0001649  60.9408 299.1746 15.06412701 90579
STARLINK-1764           
1 46343U 20062U   22110.48102664 -.00002520  00000+0 -15035-3 0  9994
2 46343  53.0563 247.7057 0001703  65.0441 295.0725 15.06398262 90862
STARLINK-1765           
1 46344U 20062V   22110.10136696  .00002259  00000+0  17048-3 0  9999
2 46344  53.0557 249.3983 0001780  46.2144 313.8992 15.06410670 90782
STARLINK-1767           
1 46345U 20062W   22110.43494799  .00001899  00000+0  14632-3 0  9992
2 46345  53.0540 267.8877 0001518  58.6773 301.4365 15.06408785 90574
STARLINK-1546           
1 46346U 20062X   22110.43482047  .00000093  00000+0  14002-4 0  9993
2 46346  53.0531 122.7889 0004053   8.9539 351.1534 15.34273566 92628
STARLINK-1547           
1 46347U 20062Y   22110.45936493 -.00002730  00000+0 -16443-3 0  9997
2 46347  53.0544 222.7805 0001815  44.3381 315.7753 15.06405068 91209
STARLINK-1553           
1 46348U 20062Z   22109.57427734  .00007066  00000+0  49254-3 0  9993
2 46348  53.0542 251.7511 0001355  67.3953 292.7179 15.06417999 90541
STARLINK-1575           
1 46349U 20062AA  22110.43356233 -.00001407  00000+0 -75555-4 0  9995
2 46349  53.0542 222.9101 0001706  47.5718 312.5415 15.06402384 91206
STARLINK-1617           
1 46350U 20062AB  22109.46923188  .00001834  00000+0  14197-3 0  9993
2 46350  53.0543 272.2439 0002149 358.6378   1.4605 15.06401348 90259
STARLINK-1646           
1 46351U 20062AC  22110.40361390  .00000617  00000+0  60343-4 0  9994
2 46351  53.0541 248.0299 0002259  52.8791 307.2404 15.06399539 90855
STARLINK-1653           
1 46352U 20062AD  22110.38518805  .00003892  00000+0  27992-3 0  9997
2 46352  53.0545 248.1166 0001961  72.3393 287.7810 15.06413074 90852
STARLINK-1656           
1 46353U 20062AE  22110.44968616 -.00000430  00000+0 -99439-5 0  9998
2 46353  53.0541 267.8427 0001737  67.6200 292.4973 15.06403199 90571
STARLINK-1657           
1 46354U 20062AF  22110.43863290 -.00000888  00000+0 -40714-4 0  9998
2 46354  53.0542 267.8722 0001638  63.5167 296.5990 15.06403581 90577
STARLINK-1661           
1 46355U 20062AG  22110.41282591  .00003063  00000+0  22443-3 0  9990
2 46355  53.0547 268.0016 0001523  67.0991 293.0159 15.06398823 90570
STARLINK-1665           
1 46356U 20062AH  22110.42388526 -.00000555  00000+0 -18333-4 0  9996
2 46356  53.0535 267.9411 0001600  63.7289 296.3865 15.06400635 90579
STARLINK-1666           
1 46357U 20062AJ  22109.82492551 -.00000477  00000+0 -13118-4 0  9992
2 46357  53.0531 250.6352 0001906  56.9868 303.1304 15.06410617 90762
STARLINK-1690           
1 46358U 20062AK  22110.46811955 -.00000830  00000+0 -36829-4 0  9995
2 46358  53.0538 267.7367 0001796  54.3604 305.7552 15.06406232 90583
STARLINK-1707           
1 46359U 20062AL  22110.44830834 -.00000286  00000+0 -28690-6 0  9995
2 46359  53.0545 222.8460 0002239  49.1027 311.0155 15.06405852 91208
STARLINK-1713           
1 46360U 20062AM  22110.47042768  .00000029  00000+0  20841-4 0  9992
2 46360  53.0541 222.7474 0001843  47.5893 312.5252 15.06396316 91212
STARLINK-1722           
1 46361U 20062AN  22110.44094145  .00005324  00000+0  37606-3 0  9995
2 46361  53.0524 222.8824 0001677  62.1582 297.9577 15.06398268 91198
STARLINK-1726           
1 46362U 20062AP  22110.48515540  .00000519  00000+0  53732-4 0  9997
2 46362  53.0564 222.6739 0001780  52.6767 307.4384 15.06408756 91210
STARLINK-1739           
1 46363U 20062AQ  22110.47779133  .00001253  00000+0  10305-3 0  9991
2 46363  53.0536 222.6975 0001955  46.6343 313.4809 15.06395653 91185
STARLINK-1763           
1 46364U 20062AR  22110.50080215  .00000180  00000+0  30974-4 0  9995
2 46364  53.0479 202.6448 0002113 155.5737 204.5352 15.06392338 91493
STARLINK-1550           
1 46365U 20062AS  22109.59316597 -.00000094  00000+0  12583-4 0  9999
2 46365  53.0538 226.6717 0001729  56.5981 303.5173 15.06397147 90895
STARLINK-1651           
1 46366U 20062AT  22109.71479635  .00001986  00000+0  15217-3 0  9993
2 46366  53.0536 226.1319 0001480  56.9269 303.1862 15.06406264 91099
STARLINK-1658           
1 46368U 20062AV  22110.37781035  .00001418  00000+0  11406-3 0  9995
2 46368  53.0534 248.1557 0001678  52.2128 307.9012 15.06402454 90858
STARLINK-1670           
1 46370U 20062AX  22110.07555740  .00001341  00000+0  10891-3 0  9999
2 46370  53.0530 249.5260 0001894  56.1111 304.0058 15.06405023 90806
STARLINK-1688           
1 46371U 20062AY  22109.86915338  .00003103  00000+0  22704-3 0  9992
2 46371  53.0535 250.4286 0001708  53.3781 306.7365 15.06413131 90772
STARLINK-1689           
1 46372U 20062AZ  22110.14376625  .00002626  00000+0  19512-3 0  9998
2 46372  53.0545 269.1978 0001663  58.5974 301.5178 15.06406665 90533
STARLINK-1711           
1 46374U 20062BB  22109.56045152 -.00003476  00000+0 -21461-3 0  9994
2 46374  53.0540 201.8368 0001299  78.5653 281.5481 15.06391735 91241
STARLINK-1724           
1 46375U 20062BC  22110.50359746  .00003574  00000+0  25875-3 0  9998
2 46375  53.0531 222.5815 0002144  38.7977 321.3166 15.06399434 91210
STARLINK-1742           
1 46376U 20062BD  22110.45199196  .00011696  00000+0  80271-3 0  9999
2 46376  53.0550 222.8264 0001588  58.2673 301.8471 15.06404705 91203
STARLINK-1758           
1 46380U 20062BH  22109.75488579 -.00000655  00000+0 -25046-4 0  9996
2 46380  53.0550 250.9541 0001760  52.9892 307.1258 15.06399904 90759
STARLINK-1769           
1 46382U 20062BK  22110.46673895  .00002045  00000+0  15611-3 0  9994
2 46382  53.0535 222.7703 0001728  52.7647 307.3500 15.06403098 91181
STARLINK-1770           
1 46383U 20062BL  22109.45816865  .00001011  00000+0  86748-4 0  9990
2 46383  53.0555 272.2923 0001434  69.4322 290.6820 15.06404904 90249
STARLINK-1771           
1 46384U 20062BM  22110.45706206  .00001035  00000+0  88368-4 0  9996
2 46384  53.0563 267.8057 0001525  81.1055 279.0106 15.06401562 90573
GAOFEN 11-2             
1 46396U 20064A   22110.44630730  .00005624  00000+0  23908-3 0  9994
2 46396  97.3721 228.2246 0003623 116.7765 308.1131 15.23428451 90294
JILIN-01 GAOFEN 3B      
1 46454U 20065A   22110.49093681  .00004790  00000+0  29007-3 0  9992
2 46454  97.4525 164.4173 0016598  81.8855  29.9007 15.10948772 87889
JILIN-01 GAOFEN 3C      
1 46455U 20065B   22110.48005713  .00004657  00000+0  28239-3 0  9999
2 46455  97.4483 164.0904 0015677  94.4096  18.6656 15.10930664 87881
JILIN-01 GAOFEN 3D      
1 46456U 20065C   22110.47078400  .00004215  00000+0  25619-3 0  9991
2 46456  97.4572 164.8210 0014813  94.7447  29.3666 15.10911581 87880
JILIN-01 GAOFEN 3E      
1 46457U 20065D   22110.47583457  .00004319  00000+0  26242-3 0  9993
2 46457  97.4536 164.4883 0015000 101.0059  12.7503 15.10907465 87885
JILIN-01 GAOFEN 3F      
1 46458U 20065E   22110.52328867  .00003802  00000+0  23153-3 0  9996
2 46458  97.4460 164.0588 0015366  90.9592  45.6709 15.10886221 87893
JILIN-01 GAOFEN 3G      
1 46459U 20065F   22110.52288512  .00003977  00000+0  24174-3 0  9996
2 46459  97.4584 165.0102 0016523  93.1389  12.5189 15.10914883 87890
JILIN-01 GAOFEN 3H      
1 46460U 20065G   22110.45085507  .00004027  00000+0  24488-3 0  9994
2 46460  97.4471 164.1085 0015429  92.7477  37.1181 15.10906580 87883
JILIN-01 GAOFEN 3I      
1 46461U 20065H   22110.43671488  .00004468  00000+0  27132-3 0  9990
2 46461  97.4570 164.8359 0015955  86.7174  38.7912 15.10891472 87888
JILIN-01 GAOFEN 3J      
1 46462U 20065J   22110.43331439  .00004574  00000+0  27762-3 0  9997
2 46462  97.4522 164.4735 0014884  91.4239  34.2911 15.10914864 87886
HAIYANG-2C              
1 46469U 20066A   22110.46952658 -.00000053  00000+0  25299-4 0  9993
2 46469  65.9983  36.5535 0014016 259.1538 100.7955 13.83371836 79717
HJ-2A                   
1 46478U 20067A   22110.47992355  .00000613  00000+0  95358-4 0  9997
2 46478  97.9933 192.8368 0001878 110.0184 250.1233 14.76508337 84155
